[{"OBJECT_NAME":"SHIJIAN-6 05A (SJ-6 05A)","OBJECT_ID":"2021-122A","EPOCH":"2026-03-09T21:12:10.842048","MEAN_MOTION":14.99085264,"ECCENTRICITY":0.0003221,"INCLINATION":97.4012,"RA_OF_ASC_NODE":42.3306,"ARG_OF_PERICENTER":76.6317,"MEAN_ANOMALY":283.5266,"EPHEMERIS_TYPE":0,"CLASSIFICATION_TYPE":"U","NORAD_CAT_ID":49961,"ELEMENT_SET_NO":999,"REV_AT_EPOCH":23387,"BSTAR":0.00027617,"MEAN_MOTION_DOT":3.299e-5,"MEAN_MOTION_DDOT":0},{"OBJECT_NAME":"STARLINK-5577","OBJECT_ID":"2023-028L","EPOCH":"2026-03-09T20:40:34.584096","MEAN_MOTION":14.98327635,"ECCENTRICITY":0.00021565,"INCLINATION":69.9992,"RA_OF_ASC_NODE":244.1117,"ARG_OF_PERICENTER":271.7261,"MEAN_ANOMALY":88.3651,"EPHEMERIS_TYPE":0,"CLASSIFICATION_TYPE":"U","NORAD_CAT_ID":55751,"ELEMENT_SET_NO":999,"REV_AT_EPOCH":16606,"BSTAR":4.8001568e-5,"MEAN_MOTION_DOT":4.8e-6,"MEAN_MOTION_DDOT":0}]
